NORAD_CAT_ID,OBJECT_NAME,OBJECT_TYPE,EPOCH,MEAN_MOTION,ECCENTRICITY,INCLINATION,RA_OF_ASC_NODE,ARG_OF_PERICENTER,MEAN_ANOMALY,BSTAR,MEAN_MOTION_DOT,MEAN_MOTION_DDOT,TLE_LINE0,TLE_LINE1,TLE_LINE2,SEMIMAJOR_AXIS,PERIOD,APOGEE,PERIGEE,DECAYED
56464.0,STARLINK-6043,PAYLOAD,2023-08-04 11:14:12,14.98314982,0.0003157,69.9993,15.1742,264.995,95.0849,0.00015758,1.787e-05,0.0,0 STARLINK-6043,1 56464U 23064S   23216.46820463  .00001787  00000-0  15758-3 0  9999,2 56464  69.9993  15.1742 0003157 264.9950  95.0849 14.98314982 13573,6950.239,96.108,574.299,569.91,0.0
56464.0,STARLINK-6043,PAYLOAD,2023-08-04 20:51:01,14.98325371,0.0003113,69.9995,14.1645,264.8221,95.2583,6.9757e-05,7.39e-06,0.0,0 STARLINK-6043,1 56464U 23064S   23216.86876239  .00000739  00000-0  69757-4 0  9990,2 56464  69.9995  14.1645 0003113 264.8221  95.2583 14.98325371 13636,6950.207,96.107,574.236,569.909,0.0
56464.0,STARLINK-6043,PAYLOAD,2023-08-05 17:40:45,14.98334676,0.0002985,69.9998,11.9763,265.2536,94.8282,8.84e-05,9.62e-06,0.0,0 STARLINK-6043,1 56464U 23064S   23217.73663632  .00000962  00000-0  88400-4 0  9992,2 56464  69.9998  11.9763 0002985 265.2536  94.8282 14.98334676 13768,6950.178,96.107,574.118,569.969,0.0
56464.0,STARLINK-6043,PAYLOAD,2023-08-06 11:18:15,14.98320299,0.0002817,70.0002,10.1253,263.2544,96.8295,-4.845e-05,-6.71e-06,0.0,0 STARLINK-6043,1 56464U 23064S   23218.47100942 -.00000671  00000-0 -48450-4 0  9994,2 56464  70.0002  10.1253 0002817 263.2544  96.8295 14.98320299 13877,6950.223,96.108,574.046,570.13,0.0
56464.0,STARLINK-6043,PAYLOAD,2023-08-06 19:18:56,14.98314906,0.0002944,70.0001,9.2833,263.9585,96.1238,-0.00011079,-1.414e-05,0.0,0 STARLINK-6043,1 56464U 23064S   23218.80481679 -.00001414  00000-0 -11079-3 0  9992,2 56464  70.0001   9.2833 0002944 263.9585  96.1238 14.98314906 13926,6950.24,96.108,574.151,570.058,0.0
56464.0,STARLINK-6043,PAYLOAD,2023-08-07 09:44:08,14.98327811,0.0003445,69.9991,7.767,269.5912,90.4852,-9.6709e-05,-1.247e-05,0.0,0 STARLINK-6043,1 56464U 23064S   23219.40565077 -.00001247  00000-0 -96709-4 0  9992,2 56464  69.9991   7.7670 0003445 269.5912  90.4852 14.98327811 14015,6950.2,96.107,574.459,569.67,0.0
56464.0,STARLINK-6043,PAYLOAD,2023-08-07 19:20:56,14.98333177,0.0003205,69.9996,6.757,264.0551,96.0243,-3.7795e-06,-1.38e-06,0.0,0 STARLINK-6043,1 56464U 23064S   23219.80620462 -.00000138  00000-0 -37795-5 0  9995,2 56464  69.9996   6.7570 0003205 264.0551  96.0243 14.98333177 14075,6950.183,96.107,574.276,569.821,0.0
56464.0,STARLINK-6043,PAYLOAD,2023-08-09 09:48:09,14.98333964,0.0003399,69.9995,2.7166,266.5386,93.5385,-5.5125e-06,-1.59e-06,0.0,0 STARLINK-6043,1 56464U 23064S   23221.40844233 -.00000159  00000-0 -55125-5 0  9998,2 56464  69.9995   2.7166 0003399 266.5386  93.5385 14.98333964 14318,6950.181,96.107,574.408,569.683,0.0
56464.0,STARLINK-6043,PAYLOAD,2023-08-10 09:50:10,14.9833735,0.0003239,69.9995,0.1928,268.8339,91.2449,-7.6484e-05,-1.006e-05,0.0,0 STARLINK-6043,1 56464U 23064S   23222.40983959 -.00001006  00000-0 -76484-4 0  9990,2 56464  69.9995   0.1928 0003239 268.8339  91.2449 14.98337350 14467,6950.17,96.107,574.286,569.784,0.0
56464.0,STARLINK-6043,PAYLOAD,2023-08-11 09:52:11,14.98327152,0.0003225,70.0,357.6678,269.6127,90.4663,5.4982e-06,-2.7e-07,0.0,0 STARLINK-6043,1 56464U 23064S   23223.41123924 -.00000027  00000-0  54982-5 0  9991,2 56464  70.0000 357.6678 0003225 269.6127  90.4663 14.98327152 14613,6950.202,96.107,574.308,569.825,0.0
56464.0,STARLINK-6043,PAYLOAD,2023-08-12 01:53:31,14.98348119,0.0003267,70.0004,355.982,275.7632,84.3154,-0.00035403,-4.317e-05,0.0,0 STARLINK-6043,1 56464U 23064S   23224.07883369 -.00004317  00000-0 -35403-3 0  9992,2 56464  70.0004 355.9820 0003267 275.7632  84.3154 14.98348119 14716,6950.137,96.106,574.272,569.731,0.0
56464.0,STARLINK-6043,PAYLOAD,2023-08-12 09:54:11,14.98333633,0.0003381,69.9989,355.1405,275.7792,84.2981,-5.2158e-05,-7.15e-06,0.0,0 STARLINK-6043,1 56464U 23064S   23224.41263676 -.00000715  00000-0 -52158-4 0  9998,2 56464  69.9989 355.1405 0003381 275.7792  84.2981 14.98333633 14767,6950.182,96.107,574.397,569.697,0.0
56464.0,STARLINK-6043,PAYLOAD,2023-08-13 17:56:53,14.98324864,0.000335,70.0,351.7755,273.6496,86.428,-5.0196e-05,-6.92e-06,0.0,0 STARLINK-6043,1 56464U 23064S   23225.74784314 -.00000692  00000-0 -50196-4 0  9996,2 56464  70.0000 351.7755 0003350 273.6496  86.4280 14.98324864 14962,6950.209,96.107,574.402,569.745,0.0
56464.0,STARLINK-6043,PAYLOAD,2023-08-14 09:58:13,14.98329978,0.0003343,70.0,350.0929,271.7049,88.3727,3.9545e-05,3.79e-06,0.0,0 STARLINK-6043,1 56464U 23064S   23226.41543831  .00000379  00000-0  39545-4 0  9993,2 56464  70.0000 350.0929 0003343 271.7049  88.3727 14.98329978 15062,6950.193,96.107,574.381,569.735,0.0
56464.0,STARLINK-6043,PAYLOAD,2023-08-15 10:00:14,14.98327576,0.0003271,70.0004,347.5678,272.4872,87.5912,9.023e-05,9.84e-06,0.0,0 STARLINK-6043,1 56464U 23064S   23227.41683782  .00000984  00000-0  90230-4 0  9994,2 56464  70.0004 347.5678 0003271 272.4872  87.5912 14.98327576 15216,6950.2,96.107,574.339,569.792,0.0
56464.0,STARLINK-6043,PAYLOAD,2023-08-15 18:00:54,14.98341685,0.0003236,70.0001,346.7259,268.5622,91.5167,-6.6286e-05,-8.84e-06,0.0,0 STARLINK-6043,1 56464U 23064S   23227.75063283 -.00000884  00000-0 -66286-4 0  9994,2 56464  70.0001 346.7259 0003236 268.5622  91.5167 14.98341685 15268,6950.157,96.106,574.271,569.773,0.0
56464.0,STARLINK-6043,PAYLOAD,2023-08-16 10:02:15,14.98334151,0.0002952,70.0007,345.0431,272.4205,87.6616,-9.2406e-05,-1.195e-05,0.0,0 STARLINK-6043,1 56464U 23064S   23228.41823841 -.00001195  00000-0 -92406-4 0  9991,2 56464  70.0007 345.0431 0002952 272.4205  87.6616 14.98334151 15369,6950.18,96.107,574.097,569.993,0.0
56464.0,STARLINK-6043,PAYLOAD,2023-08-17 10:04:16,14.9833184,0.0003165,70.0006,342.5181,269.7807,90.2989,-2.7933e-05,-4.26e-06,0.0,0 STARLINK-6043,1 56464U 23064S   23229.41963550 -.00000426  00000-0 -27933-4 0  9993,2 56464  70.0006 342.5181 0003165 269.7807  90.2989 14.98331840 15518,6950.187,96.107,574.252,569.852,0.0
56464.0,STARLINK-6043,PAYLOAD,2023-08-18 10:06:17,14.98331232,0.0003177,69.9999,339.9917,269.7271,90.3524,-6.5356e-05,-8.73e-06,0.0,0 STARLINK-6043,1 56464U 23064S   23230.42103622 -.00000873  00000-0 -65356-4 0  9999,2 56464  69.9999 339.9917 0003177 269.7271  90.3524 14.98331232 15668,6950.189,96.107,574.262,569.846,0.0
56464.0,STARLINK-6043,PAYLOAD,2023-08-19 10:08:18,14.98324711,0.0003225,70.0001,337.4681,268.9052,91.1737,-2.4663e-05,-3.87e-06,0.0,0 STARLINK-6043,1 56464U 23064S   23231.42243957 -.00000387  00000-0 -24663-4 0  9992,2 56464  70.0001 337.4681 0003225 268.9052  91.1737 14.98324711 15814,6950.209,96.107,574.316,569.833,0.0
56464.0,STARLINK-6043,PAYLOAD,2023-08-19 19:45:06,14.9833154,0.0003378,69.9995,336.458,268.9727,91.1045,-5.1624e-06,-1.55e-06,0.0,0 STARLINK-6043,1 56464U 23064S   23231.82299468 -.00000155  00000-0 -51624-5 0  9995,2 56464  69.9995 336.4580 0003378 268.9727  91.1045 14.98331540 15874,6950.188,96.107,574.401,569.705,0.0
56464.0,STARLINK-6043,PAYLOAD,2023-08-20 11:46:28,14.98315746,0.000341,69.9996,334.7748,269.3403,90.7365,-6.6191e-05,-8.82e-06,0.0,0 STARLINK-6043,1 56464U 23064S   23232.49060920 -.00000882  00000-0 -66191-4 0  9999,2 56464  69.9996 334.7748 0003410 269.3403  90.7365 14.98315746 15976,6950.237,96.108,574.472,569.732,0.0
56464.0,STARLINK-6043,PAYLOAD,2023-08-21 00:35:32,14.98323701,0.0003741,69.9995,333.4283,267.3237,92.7494,-6.4707e-05,-8.65e-06,0.0,0 STARLINK-6043,1 56464U 23064S   23233.02468660 -.00000865  00000-0 -64707-4 0  9994,2 56464  69.9995 333.4283 0003741 267.3237  92.7494 14.98323701 16050,6950.212,96.107,574.677,569.477,0.0
56464.0,STARLINK-6043,PAYLOAD,2023-08-21 16:36:53,14.98332699,0.0003377,70.0,331.7449,270.3544,89.7228,6.9449e-05,7.36e-06,0.0,0 STARLINK-6043,1 56464U 23064S   23233.69228041  .00000736  00000-0  69449-4 0  9997,2 56464  70.0000 331.7449 0003377 270.3544  89.7228 14.98332699 16153,6950.185,96.107,574.397,569.702,0.0
56464.0,STARLINK-6043,PAYLOAD,2023-08-22 18:15:00,14.98339245,0.0003488,69.9997,329.0518,269.2995,90.7764,0.00026587,3.081e-05,0.0,0 STARLINK-6043,1 56464U 23064S   23234.76042747  .00003081  00000-0  26587-3 0  9994,2 56464  69.9997 329.0518 0003488 269.2995  90.7764 14.98339245 16311,6950.164,96.106,574.454,569.605,0.0
56464.0,STARLINK-6043,PAYLOAD,2023-08-23 11:52:30,14.98336385,0.0003381,70.0001,327.2004,269.7404,90.3368,8.7627e-06,1.2e-07,0.0,0 STARLINK-6043,1 56464U 23064S   23235.49479346  .00000012  00000-0  87627-5 0  9999,2 56464  70.0001 327.2004 0003381 269.7404  90.3368 14.98336385 16422,6950.173,96.107,574.388,569.688,0.0
56464.0,STARLINK-6043,PAYLOAD,2023-08-24 11:54:31,14.98333273,0.000323,70.0005,324.6759,268.1206,91.9583,-0.00012303,-1.561e-05,0.0,0 STARLINK-6043,1 56464U 23064S   23236.49619429 -.00001561  00000-0 -12303-3 0  9997,2 56464  70.0005 324.6759 0003230 268.1206  91.9583 14.98333273 16575,6950.183,96.107,574.293,569.803,0.0
56464.0,STARLINK-6043,PAYLOAD,2023-08-25 13:32:40,14.98328905,0.0003165,70.0005,321.9837,261.1154,98.9647,-3.2098e-05,-4.76e-06,0.0,0 STARLINK-6043,1 56464U 23064S   23237.56435194 -.00000476  00000-0 -32098-4 0  9999,2 56464  70.0005 321.9837 0003165 261.1154  98.9647 14.98328905 16376,6950.196,96.107,574.261,569.862,0.0
56464.0,STARLINK-6043,PAYLOAD,2023-08-25 18:21:03,14.98334918,0.0003606,69.9994,321.477,271.3739,88.7007,-5.4415e-06,-1.58e-06,0.0,0 STARLINK-6043,1 56464U 23064S   23237.76462737 -.00000158  00000-0 -54415-5 0  9999,2 56464  69.9994 321.4770 0003606 271.3739  88.7007 14.98334918 16764,6950.178,96.107,574.549,569.536,0.0
56464.0,STARLINK-6043,PAYLOAD,2023-08-26 10:22:23,14.98344902,0.0003731,69.999,319.7938,272.3472,87.726,0.00017748,2.026e-05,0.0,0 STARLINK-6043,1 56464U 23064S   23238.43221196  .00002026  00000-0  17748-3 0  9996,2 56464  69.9990 319.7938 0003731 272.3472  87.7260 14.98344902 16865,6950.147,96.106,574.605,569.419,0.0
